O3B MPOWER F1           
1 54755U 22174A   24278.01502397 -.00000021  00000+0  00000+0 0  9994
2 54755   0.0526 345.7295 0006476 198.7086  54.2433  5.00113573 34281
